IRIDIUM 112             
1 41925U 17003J   24111.37718956  .00001076  00000+0  37701-3 0  9991
2 41925  86.3964  57.5252 0002104  88.5678 271.5759 14.34216307380383
IRIDIUM 111             
1 41926U 17003K   24110.94589978  .00000484  00000+0  16566-3 0  9992
2 41926  86.3974  57.7595 0002521  85.5263 274.6221 14.34222212380275
IRIDIUM 113             
1 42803U 17039A   24110.99563986  .00000296  00000+0  98459-4 0  9995
2 42803  86.3919 291.5252 0002310  92.0365 268.1095 14.34222370358210
IRIDIUM 123             
1 42804U 17039B   24110.68827259  .00000306  00000+0  10211-3 0  9999
2 42804  86.3955 323.1710 0002330  87.2345 272.9117 14.34218844356934
IRIDIUM 120             
1 42805U 17039C   24110.91952658  .00000182  00000+0  57972-4 0  9996
2 42805  86.3911 291.4417 0002105  89.7824 270.3613 14.34221846358196
IRIDIUM 115             
1 42806U 17039D   24111.52024598  .00000503  00000+0  14363-3 0  9991
2 42806  86.4446 291.2063 0002354  93.1299 267.0171 14.43279769360650
IRIDIUM 118             
1 42807U 17039E   24110.65021629  .00000234  00000+0  76598-4 0  9997
2 42807  86.3955 323.1884 0002039  90.1142 270.0288 14.34219371356926
IRIDIUM 117             
1 42808U 17039F   24110.94831707  .00000817  00000+0  28469-3 0  9996
2 42808  86.3954 323.0288 0002389  87.6045 272.5425 14.34219263356991
